{"type": "FeatureCollection", "features": [ {"type": "Feature", "properties": {"norad_id": 30529, "name": "FENGYUN 1C DEB", "group": "fengyun-1c-debris", "lat": 34.6126139913231, "lon": -95.56464086180964, "alt_km": 1161.266918344434, "timestamp": "2025-12-14T16:47:40.960612+00:00", "meta": {"OBJECT_NAME": "FENGYUN 1C DEB", "OBJECT_ID": "1999-025AJT", "EPOCH": "2025-12-13T17:51:26.012448", "MEAN_MOTION": 13.71609854, "ECCENTRICITY": 0.02304788, "INCLINATION": 98.487, "RA_OF_ASC_NODE": 269.5039, "ARG_OF_PERICENTER": 219.6089, "MEAN_ANOMALY": 138.8027, "EPHEMERIS_TYPE": 0, "CLASSIFICATION_TYPE": "U", "NORAD_CAT_ID": 30529, "ELEMENT_SET_NO": 999, "REV_AT_EPOCH": 94022, "BSTAR": 0.00122315, "MEAN_MOTION_DOT": 1.295e-05, "MEAN_MOTION_DDOT": 0}, "tle": {"line1": "1 30529U 99025AJT 25347.74405107  .00001295  00000+0  12232-2 0  9991", "line2": "2 30529  98.4870 269.5039 0230478 219.6089 138.8027 13.71609854940220"}}, "geometry": {"type": "Point", "coordinates": [-95.56464086180964, 34.6126139913231]}}, {"type": "Feature", "properties": {"norad_id": 30530, "name": "FENGYUN 1C DEB", "group": "fengyun-1c-debris", "lat": 69.87208746046912, "lon": -129.21214080417323, "alt_km": 696.1034469290398, "timestamp": "2025-12-14T16:47:40.960622+00:00", "meta": {"OBJECT_NAME": "FENGYUN 1C DEB", "OBJECT_ID": "1999-025AJU", "EPOCH": "2025-12-13T15:49:17.267232", "MEAN_MOTION": 14.36784945, "ECCENTRICITY": 0.0100241, "INCLINATION": 98.3965, "RA_OF_ASC_NODE": 26.0069, "ARG_OF_PERICENTER": 134.0725, "MEAN_ANOMALY": 355.6165, "EPHEMERIS_TYPE": 0, "CLASSIFICATION_TYPE": "U", "NORAD_CAT_ID": 30530, "ELEMENT_SET_NO": 999, "REV_AT_EPOCH": 98798, "BSTAR": 0.00033993736, "MEAN_MOTION_DOT": 1.019e-05, "MEAN_MOTION_DDOT": 0}, "tle": {"line1": "1 30530U 99025AJU 25347.65922763  .00001019  00000+0  33994-3 0  9998", "line2": "2 30530  98.3965  26.0069 0100241 134.0725 355.6165 14.36784945987989"}}, "geometry": {"type": "Point", "coordinates": [-129.21214080417323, 69.87208746046912]}}, {"type": "Feature", "properties": {"norad_id": 30531, "name": "FENGYUN 1C DEB", "group": "fengyun-1c-debris", "lat": -34.33881534198801, "lon": -175.61816652995736, "alt_km": 703.6455997065896, "timestamp": "2025-12-14T16:47:40.960633+00:00", "meta": {"OBJECT_NAME": "FENGYUN 1C DEB", "OBJECT_ID": "1999-025AJV", "EPOCH": "2025-12-13T11:23:30.904800", "MEAN_MOTION": 14.6191506, "ECCENTRICITY": 0.00277371, "INCLINATION": 102.3103, "RA_OF_ASC_NODE": 173.9857, "ARG_OF_PERICENTER": 204.1174, "MEAN_ANOMALY": 155.8715, "EPHEMERIS_TYPE": 0, "CLASSIFICATION_TYPE": "U", "NORAD_CAT_ID": 30531, "ELEMENT_SET_NO": 999, "REV_AT_EPOCH": 97706, "BSTAR": 0.008208347, "MEAN_MOTION_DOT": 0.00041494, "MEAN_MOTION_DDOT": 0}, "tle": {"line1": "1 30531U 99025AJV 25347.47466325  .00041494  00000+0  82083-2 0  9999", "line2": "2 30531 102.3103 173.9857 0027737 204.1174 155.8715 14.61915060977063"}}, "geometry": {"type": "Point", "coordinates": [-175.61816652995736, -34.33881534198801]}}, {"type": "Feature", "properties": {"norad_id": 30532, "name": "FENGYUN 1C DEB", "group": "fengyun-1c-debris", "lat": 9.3908726293652, "lon": -145.03162294421531, "alt_km": 482.7614727632972, "timestamp": "2025-12-14T16:47:40.960643+00:00", "meta": {"OBJECT_NAME": "FENGYUN 1C DEB", "OBJECT_ID": "1999-025AJW", "EPOCH": "2025-12-13T19:36:15.218784", "MEAN_MOTION": 15.26791033, "ECCENTRICITY": 0.00242472, "INCLINATION": 96.9626, "RA_OF_ASC_NODE": 32.9863, "ARG_OF_PERICENTER": 254.5323, "MEAN_ANOMALY": 105.3239, "EPHEMERIS_TYPE": 0, "CLASSIFICATION_TYPE": "U", "NORAD_CAT_ID": 30532, "ELEMENT_SET_NO": 999, "REV_AT_EPOCH": 97704, "BSTAR": 0.012974673, "MEAN_MOTION_DOT": 0.00360621, "MEAN_MOTION_DDOT": 0}, "tle": {"line1": "1 30532U 99025AJW 25347.81684281  .00360621  00000+0  12975-1 0  9999", "line2": "2 30532  96.9626  32.9863 0024247 254.5323 105.3239 15.26791033977044"}}, "geometry": {"type": "Point", "coordinates": [-145.03162294421531, 9.3908726293652]}}, {"type": "Feature", "properties": {"norad_id": 30533, "name": "FENGYUN 1C DEB", "group": "fengyun-1c-debris", "lat": -62.51682007077622, "lon": -79.77329809094772, "alt_km": 730.2734049821338, "timestamp": "2025-12-14T16:47:40.960653+00:00", "meta": {"OBJECT_NAME": "FENGYUN 1C DEB", "OBJECT_ID": "1999-025AJX", "EPOCH": "2025-12-13T22:03:41.764896", "MEAN_MOTION": 14.53854279, "ECCENTRICITY": 0.00823653, "INCLINATION": 98.8332, "RA_OF_ASC_NODE": 116.7973, "ARG_OF_PERICENTER": 145.7488, "MEAN_ANOMALY": 334.1872, "EPHEMERIS_TYPE": 0, "CLASSIFICATION_TYPE": "U", "NORAD_CAT_ID": 30533, "ELEMENT_SET_NO": 999, "REV_AT_EPOCH": 97838, "BSTAR": 0.0035379701, "MEAN_MOTION_DOT": 0.00015531, "MEAN_MOTION_DDOT": 0}, "tle": {"line1": "1 30533U 99025AJX 25347.91923339  .00015531  00000+0  35380-2 0  9994", "line2": "2 30533  98.8332 116.7973 0082365 145.7488 334.1872 14.53854279978385"}}, "geometry": {"type": "Point", "coordinates": [-79.77329809094772, -62.51682007077622]}}, {"type": "Feature", "properties": {"norad_id": 30539, "name": "FENGYUN 1C DEB", "group": "fengyun-1c-debris", "lat": -19.137842053434095, "lon": -27.6116203921661, "alt_km": 685.5044111105208, "timestamp": "2025-12-14T16:47:40.960662+00:00", "meta": {"OBJECT_NAME": "FENGYUN 1C DEB", "OBJECT_ID": "1999-025AKD", "EPOCH": "2025-12-13T21:05:00.753216", "MEAN_MOTION": 14.55410621, "ECCENTRICITY": 0.01154164, "INCLINATION": 98.8799, "RA_OF_ASC_NODE": 328.4056, "ARG_OF_PERICENTER": 272.3133, "MEAN_ANOMALY": 86.4852, "EPHEMERIS_TYPE": 0, "CLASSIFICATION_TYPE": "U", "NORAD_CAT_ID": 30539, "ELEMENT_SET_NO": 999, "REV_AT_EPOCH": 99382, "BSTAR": 0.00082982274, "MEAN_MOTION_DOT": 3.886e-05, "MEAN_MOTION_DDOT": 0}, "tle": {"line1": "1 30539U 99025AKD 25347.87848094  .00003886  00000+0  82982-3 0  9990", "line2": "2 30539  98.8799 328.4056 0115416 272.3133  86.4852 14.55410621993822"}}, "geometry": {"type": "Point", "coordinates": [-27.6116203921661, -19.137842053434095]}}, {"type": "Feature", "properties": {"norad_id": 30540, "name": "FENGYUN 1C DEB", "group": "fengyun-1c-debris", "lat": 24.38594933657435, "lon": 93.02520702496423, "alt_km": 751.9724819655576, "timestamp": "2025-12-14T16:47:40.960673+00:00", "meta": {"OBJECT_NAME": "FENGYUN 1C DEB", "OBJECT_ID": "1999-025AKE", "EPOCH": "2025-12-13T13:54:38.168352", "MEAN_MOTION": 14.32291413, "ECCENTRICITY": 0.00514358, "INCLINATION": 98.8781, "RA_OF_ASC_NODE": 95.9421, "ARG_OF_PERICENTER": 59.8504, "MEAN_ANOMALY": 312.6278, "EPHEMERIS_TYPE": 0, "CLASSIFICATION_TYPE": "U", "NORAD_CAT_ID": 30540, "ELEMENT_SET_NO": 999, "REV_AT_EPOCH": 97298, "BSTAR": 0.0024258859, "MEAN_MOTION_DOT": 6.603e-05, "MEAN_MOTION_DDOT": 0}, "tle": {"line1": "1 30540U 99025AKE 25347.57960843  .00006603  00000+0  24259-2 0  9998", "line2": "2 30540  98.8781  95.9421 0051435  59.8504 312.6278 14.32291413972988"}}, "geometry": {"type": "Point", "coordinates": [93.02520702496423, 24.38594933657435]}}, {"type": "Feature", "properties": {"norad_id": 30541, "name": "FENGYUN 1C DEB", "group": "fengyun-1c-debris", "lat": -7.407339632837185, "lon": 36.356906212155934, "alt_km": 818.2869905653679, "timestamp": "2025-12-14T16:47:40.960683+00:00", "meta": {"OBJECT_NAME": "FENGYUN 1C DEB", "OBJECT_ID": "1999-025AKF", "EPOCH": "2025-12-13T13:49:49.764288", "MEAN_MOTION": 14.2305774, "ECCENTRICITY": 0.00182669, "INCLINATION": 98.6948, "RA_OF_ASC_NODE": 34.1077, "ARG_OF_PERICENTER": 83.5778, "MEAN_ANOMALY": 276.7479, "EPHEMERIS_TYPE": 0, "CLASSIFICATION_TYPE": "U", "NORAD_CAT_ID": 30541, "ELEMENT_SET_NO": 999, "REV_AT_EPOCH": 97339, "BSTAR": 0.0014737551, "MEAN_MOTION_DOT": 3.286e-05, "MEAN_MOTION_DDOT": 0}, "tle": {"line1": "1 30541U 99025AKF 25347.57627042  .00003286  00000+0  14738-2 0  9995", "line2": "2 30541  98.6948  34.1077 0018266  83.5778 276.7479 14.23057740973398"}}, "geometry": {"type": "Point", "coordinates": [36.356906212155934, -7.407339632837185]}}, {"type": "Feature", "properties": {"norad_id": 30542, "name": "FENGYUN 1C DEB", "group": "fengyun-1c-debris", "lat": 71.03433917530388, "lon": -135.85879575468368, "alt_km": 877.6725230320517, "timestamp": "2025-12-14T16:47:40.960693+00:00", "meta": {"OBJECT_NAME": "FENGYUN 1C DEB", "OBJECT_ID": "1999-025AKG", "EPOCH": "2025-12-13T15:15:37.390752", "MEAN_MOTION": 14.0697366, "ECCENTRICITY": 0.0027488, "INCLINATION": 98.7872, "RA_OF_ASC_NODE": 16.358, "ARG_OF_PERICENTER": 331.6679, "MEAN_ANOMALY": 149.0354, "EPHEMERIS_TYPE": 0, "CLASSIFICATION_TYPE": "U", "NORAD_CAT_ID": 30542, "ELEMENT_SET_NO": 999, "REV_AT_EPOCH": 96931, "BSTAR": 0.00015341907, "MEAN_MOTION_DOT": 2.14e-06, "MEAN_MOTION_DDOT": 0}, "tle": {"line1": "1 30542U 99025AKG 25347.63584943  .00000214  00000+0  15342-3 0  9996", "line2": "2 30542  98.7872  16.3580 0027488 331.6679 149.0354 14.06973660969310"}}, "geometry": {"type": "Point", "coordinates": [-135.85879575468368, 71.03433917530388]}}, {"type": "Feature", "properties": {"norad_id": 30543, "name": "FENGYUN 1C DEB", "group": "fengyun-1c-debris", "lat": 19.450253612578, "lon": -178.64111550427305, "alt_km": 915.9426635774826, "timestamp": "2025-12-14T16:47:40.960826+00:00", "meta": {"OBJECT_NAME": "FENGYUN 1C DEB", "OBJECT_ID": "1999-025AKH", "EPOCH": "2025-12-13T18:38:40.939008", "MEAN_MOTION": 14.03742444, "ECCENTRICITY": 0.00723977, "INCLINATION": 98.8333, "RA_OF_ASC_NODE": 357.3143, "ARG_OF_PERICENTER": 30.6888, "MEAN_ANOMALY": 147.5347, "EPHEMERIS_TYPE": 0, "CLASSIFICATION_TYPE": "U", "NORAD_CAT_ID": 30543, "ELEMENT_SET_NO": 999, "REV_AT_EPOCH": 96519, "BSTAR": 0.00048221613, "MEAN_MOTION_DOT": 7.34e-06, "MEAN_MOTION_DDOT": 0}, "tle": {"line1": "1 30543U 99025AKH 25347.77686272  .00000734  00000+0  48222-3 0  9990", "line2": "2 30543  98.8333 357.3143 0072397  30.6888 147.5347 14.03742444965192"}}, "geometry": {"type": "Point", "coordinates": [-178.64111550427305, 19.450253612578]}}]}